[{"OBJECT_NAME":"KSM1-B","OBJECT_ID":"2020-081K","EPOCH":"2026-03-09T23:03:07.817760","MEAN_MOTION":15.22983333,"ECCENTRICITY":0.00044009,"INCLINATION":36.9029,"RA_OF_ASC_NODE":318.3288,"ARG_OF_PERICENTER":174.9385,"MEAN_ANOMALY":185.1408,"EPHEMERIS_TYPE":0,"CLASSIFICATION_TYPE":"U","NORAD_CAT_ID":46914,"ELEMENT_SET_NO":999,"REV_AT_EPOCH":29704,"BSTAR":0.00033094478,"MEAN_MOTION_DOT":7.872e-5,"MEAN_MOTION_DDOT":0},{"OBJECT_NAME":"STARLINK-5368","OBJECT_ID":"2022-177W","EPOCH":"2026-03-09T22:00:01.999584","MEAN_MOTION":15.19174246,"ECCENTRICITY":0.00016966,"INCLINATION":43.0008,"RA_OF_ASC_NODE":130.9789,"ARG_OF_PERICENTER":280.9894,"MEAN_ANOMALY":38.8001,"EPHEMERIS_TYPE":0,"CLASSIFICATION_TYPE":"U","NORAD_CAT_ID":54840,"ELEMENT_SET_NO":999,"REV_AT_EPOCH":573,"BSTAR":0.047025493,"MEAN_MOTION_DOT":0.01090381,"MEAN_MOTION_DDOT":0}]
